EUTELSAT QUANTUM        
1 49056U 21069B   25291.09350323  .00000118  00000+0  00000+0 0  9994
2 49056   0.0434  57.3296 0002708 173.7625 237.1118  1.00272234 15502
EUTELSAT KONNECT VHTS   
1 53765U 22110A   25291.12616866  .00000010  00000+0  00000+0 0  9996
2 53765   0.0594  95.0824 0002576  96.4754 243.4378  1.00270783  4394
EUTELSAT HOTBIRD 13F    
1 54048U 22134A   25291.12816199  .00000080  00000+0  00000+0 0  9995
2 54048   0.0568 281.9060 0002166  76.1102  87.9901  1.00271504 10948
EUTELSAT HOTBIRD 13G    
1 54225U 22146A   25290.84274355  .00000079  00000+0  00000+0 0  9993
2 54225   0.0481 234.9867 0001866 308.2046 159.7899  1.00270880  5038
EUTELSAT 10B            
1 54259U 22157A   25291.12755534  .00000061  00000+0  00000+0 0  9998
2 54259   0.0616  92.3963 0001610  45.0468 305.3233  1.00270874 10590
EUTELSAT 36D            
1 59346U 24059A   25291.09906111  .00000148  00000+0  00000+0 0  9994
2 59346   0.0194 232.6170 0000099 150.3933  75.3389  1.00270777  5715
